STARLINK-4626
1 53685U 22105AP  26092.83335647 -.00030742  00000+0 -22004-2 0  9992
2 53685  97.6030 333.8418 0002003  84.8269 185.4039 15.04530010  5640
